{"type":"Topology","objects":{"schnucks":{"type":"GeometryCollection","geometries":[{"type":"Point","id":"1msGPgn3yx4Jm_d46nr3gCkECkM=","properties":{"ref":"Schnucks Bettendorf","@spider":"schnucks","addr":"858 Middle Rd","city":"Bettendorf","state":"IA","postal":52722,"addr:country":"US","phone":"563-355-7810","website":"https://locations.schnucks.com/ia-bettendorf-745","opening_hours":"Mo-Su 06:00-23:59"},"coordinates":[3706,7846]},{"type":"Point","id":"dxpbfpQgYJVVdDM1J9AUkOb0jxk=","properties":{"ref":"Schnucks Columbia","@spider":"schnucks","addr":"1400 Forum Blvd","city":"Columbia","state":"MO","postal":65203,"addr:country":"US","phone":"573-446-2800","website":"https://locations.schnucks.com/mo-columbia-714","opening_hours":"Mo-Su 06:00-23:59"},"coordinates":[0,3023]},{"type":"Point","id":"6R22DNBzJoX2HNjIYNRSN_tZtl4=","properties":{"ref":"Schnucks Jefferson City","@spider":"schnucks","addr":"1801 Missouri Blvd","city":"Jefferson City","state":"MO","postal":65109,"addr:country":"US","phone":"573-635-4666","website":"https://locations.schnucks.com/mo-jefferson-city-726","opening_hours":"Mo-Su 06:00-23:59"},"coordinates":[321,2361]},{"type":"Point","id":"UKG2Pn1yPELAyfWnji8z-5MUozs=","properties":{"ref":"Schnucks Janesville","@spider":"schnucks","addr":"1501 Creston Park Dr","city":"Janesville","state":"WI","postal":53545,"addr:country":"US","phone":"608-755-5805","website":"https://locations.schnucks.com/wi-janesville-758","opening_hours":"Mo-Su 06:00-23:00"},"coordinates":[6767,9999]},{"type":"Point","id":"_uvqUcmyTQ3RWqJHN28Qhb5CG6c=","properties":{"ref":"Schnucks Roscoe","@spider":"schnucks","addr":"4860 Hononegah Rd","city":"Roscoe","state":"IL","postal":61073,"addr:country":"US","phone":"815-623-7799","website":"https://locations.schnucks.com/il-roscoe-756","opening_hours":"Mo-Su 06:00-23:59"},"coordinates":[6733,9499]},{"type":"Point","id":"dJbX7CRBvjLO0wJ5SV0aFl2MFlI=","properties":{"ref":"Schnucks Loves Park","@spider":"schnucks","addr":"1810 Harlem Rd","city":"Loves Park","state":"IL","postal":61111,"addr:country":"US","phone":"815-633-1481","website":"https://locations.schnucks.com/il-loves-park-753","opening_hours":"Mo-Su 06:00-23:59"},"coordinates":[6713,9330]},{"type":"Point","id":"iA297Qkgd-OSzZaGMLzHVWc1znY=","properties":{"ref":"Schnucks Rockford Plaza","@spider":"schnucks","addr":"2642 Charles St","city":"Rockford","state":"IL","postal":61108,"addr:country":"US","phone":"815-484-2453","website":"https://locations.schnucks.com/il-rockford-754","opening_hours":"Mo-Su 06:00-23:59"},"coordinates":[6667,9182]},{"type":"Point","id":"2XCUitZh3dS1ijuJMC5m6CaVb3A=","properties":{"ref":"Schnucks 11th Street","@spider":"schnucks","addr":"3134 11th St","city":"Rockford","state":"IL","postal":61109,"addr:country":"US","phone":"815-398-0440","website":"https://locations.schnucks.com/il-rockford-748","opening_hours":"Mo-Su 06:00-23:00"},"coordinates":[6636,9121]},{"type":"Point","id":"Tz9dvR6gbJMaecGNsegVf7bVPf0=","properties":{"ref":"Schnucks East State","@spider":"schnucks","addr":"6410 E State St","city":"Rockford","state":"IL","postal":61108,"addr:country":"US","phone":"815-397-6080","website":"https://locations.schnucks.com/il-rockford-750","opening_hours":"Mo-Su 06:00-23:59"},"coordinates":[6792,9198]},{"type":"Point","id":"rT8QqpClVE5IBLDknm3Feozivis=","properties":{"ref":"Schnucks Cherry Valley","@spider":"schnucks","addr":"2206 Barnes Blvd","city":"Rockford","state":"IL","postal":61112,"addr:country":"US","phone":"815-332-7267","website":"https://locations.schnucks.com/il-rockford-747","opening_hours":"Mo-Su 00:00-23:59"},"coordinates":[6821,9148]},{"type":"Point","id":"tpvbwGEGcVL5m4uyVymPeaaHSbA=","properties":{"ref":"Schnucks Knoxville","@spider":"schnucks","addr":"10405 N Centerway Dr","city":"Peoria","state":"IL","postal":61615,"addr:country":"US","phone":"309-621-7340","website":"https://locations.schnucks.com/il-peoria-741","opening_hours":"Mo-Su 06:00-23:59"},"coordinates":[5535,6503]},{"type":"Point","id":"Uy5o9EpMBJ9JJPLM2VM5WtVlE8M=","properties":{"ref":"Schnucks Peoria","@spider":"schnucks","addr":"4800 N University","city":"Peoria","state":"IL","postal":61614,"addr:country":"US","phone":"309-690-3242","website":"https://locations.schnucks.com/il-peoria-721","opening_hours":"Mo-Su 00:00-23:59"},"coordinates":[5544,6374]},{"type":"Point","id":"3gGpTOQLxjGwYrVbgMQl-LBm5xQ=","properties":{"ref":"Schnucks DeKalb","@spider":"schnucks","addr":"975 S Glidden Annie Rd","city":"DeKalb","state":"IL","postal":60115,"addr:country":"US","phone":"815-748-6200","website":"https://locations.schnucks.com/il-dekalb-749","opening_hours":"Mo-Su 06:00-23:59"},"coordinates":[7228,8549]},{"type":"Point","id":"uoG8Mh7dM8aP3X02_NPiO95FAkU=","properties":{"ref":"Schnucks Pekin","@spider":"schnucks","addr":"1001 Court St","city":"Pekin","state":"IL","postal":61554,"addr:country":"US","phone":"309-347-6757","website":"https://locations.schnucks.com/il-pekin-724","opening_hours":"Mo-Su 00:00-23:59"},"coordinates":[5490,6043]},{"type":"Point","id":"7wDS7rDDyb9kq917C8nsvQuJCN8=","properties":{"ref":"Schnucks Wentzville","@spider":"schnucks","addr":"1960 Wentzville Parkway","city":"Wentzville","state":"MO","postal":63385,"addr:country":"US","phone":"636-332-8468","website":"https://locations.schnucks.com/mo-wentzville-725","opening_hours":"Mo-Su 06:00-23:59"},"coordinates":[2995,2796]},{"type":"Point","id":"coTv--S3sVXv_Oxya8X1WwHyIyc=","properties":{"ref":"Schnucks Washington","@spider":"schnucks","addr":"2073 Washington Crossing","city":"Washington","state":"MO","postal":63090,"addr:country":"US","phone":"636-239-3577","website":"https://locations.schnucks.com/mo-washington-719","opening_hours":"Mo-Su 05:00-01:00"},"coordinates":[2724,2280]},{"type":"Point","id":"U-ltV9Lftd8RVlLf4Lp4-5MH65U=","properties":{"ref":"Schnucks Lake St. Louis","@spider":"schnucks","addr":"101 Civic Center Dr","city":"Lake St. Louis","state":"MO","postal":63367,"addr:country":"US","phone":"636-561-1922","website":"https://locations.schnucks.com/mo-lake-st-louis-135","opening_hours":"Mo-Su 06:00-23:59"},"coordinates":[3151,2741]},{"type":"Point","id":"m60Gc8h1alVpHIUXLzNzlZlJ65Y=","properties":{"ref":"Schnucks O'Fallon","@spider":"schnucks","addr":"8660 Veterans Memorial Pkwy","city":"O'Fallon","state":"MO","postal":63366,"addr:country":"US","phone":"636-978-3566","website":"https://locations.schnucks.com/mo-ofallon-129","opening_hours":"Mo-Su 00:00-23:59"},"coordinates":[3348,2768]},{"type":"Point","id":"gKqgoLVoyeF8w8FpO1dOo7VHWv0=","properties":{"ref":"Schnucks Dardenne","@spider":"schnucks","addr":"3029 Hwy K","city":"O'Fallon","state":"MO","postal":63368,"addr:country":"US","phone":"636-240-6868","website":"https://locations.schnucks.com/mo-ofallon-123","opening_hours":"Mo-Su 06:00-23:59"},"coordinates":[3338,2688]},{"type":"Point","id":"B1H17YGbwh-7CR2DLaY59VokoYw=","properties":{"ref":"Schnucks Mid Rivers","@spider":"schnucks","addr":"577 Mid Rivers Mall Dr","city":"St. Peters","state":"MO","postal":63376,"addr:country":"US","phone":"636-970-2570","website":"https://locations.schnucks.com/mo-st-peters-110","opening_hours":"Mo-Su 06:00-23:59"},"coordinates":[3491,2746]},{"type":"Point","id":"dUIXfBDv9TIigkdLqSdTk7b25ag=","properties":{"ref":"Schnucks Cottleville","@spider":"schnucks","addr":"6083 Mid Rivers Mall Dr","city":"Cottleville","state":"MO","postal":63304,"addr:country":"US","phone":"636-498-0108","website":"https://locations.schnucks.com/mo-cottleville-124","opening_hours":"Mo-Su 06:00-23:59"},"coordinates":[3473,2668]},{"type":"Point","id":"zUlxjSSR_6m6Uv5qLe2QeT-jXwU=","properties":{"ref":"Schnucks Harvester","@spider":"schnucks","addr":"48 Plaza Ninety-Four Dr","city":"St. Peters","state":"MO","postal":63376,"addr:country":"US","phone":"636-928-1623","website":"https://locations.schnucks.com/mo-st-peters-138","opening_hours":"Mo-Su 00:00-23:59"},"coordinates":[3563,2675]},{"type":"Point","id":"Bgd_Ko5yd96XFkljWQ-8LPxZ1Pc=","properties":{"ref":"Schnucks Zumbehl","@spider":"schnucks","addr":"1950 Zumbehl Rd","city":"St. Charles","state":"MO","postal":63303,"addr:country":"US","phone":"636-947-8422","website":"https://locations.schnucks.com/mo-st-charles-111","opening_hours":"Mo-Su 06:00-23:59"},"coordinates":[3688,2734]},{"type":"Point","id":"nMOKMU5M5SP8bpGbwy7YCphofPI=","properties":{"ref":"Schnucks Lindenwood","@spider":"schnucks","addr":"19000 First Capitol Dr","city":"St. Charles","state":"MO","postal":63301,"addr:country":"US","phone":"636-946-0123","website":"https://locations.schnucks.com/mo-st-charles-176","opening_hours":"Mo-Su 06:00-23:59"},"coordinates":[3746,2737]},{"type":"Point","id":"Yh0_Cx0-AvpfzWouwKG2AJ9DlWE=","properties":{"ref":"Schnucks Wildwood","@spider":"schnucks","addr":"16580 Manchester","city":"Wildwood","state":"MO","postal":63040,"addr:country":"US","phone":"636-458-5544","website":"https://locations.schnucks.com/mo-wildwood-121","opening_hours":"Mo-Su 06:00-23:59"},"coordinates":[3512,2362]},{"type":"Point","id":"_gdo323GmEUhHkEJQjevcZrKYa8=","properties":{"ref":"Schnucks Chesterfield","@spider":"schnucks","addr":"141 Hilltown Village","city":"Chesterfield","state":"MO","postal":63017,"addr:country":"US","phone":"636-532-2505","website":"https://locations.schnucks.com/mo-chesterfield-133","opening_hours":"Mo-Su 06:00-01:00"},"coordinates":[3642,2508]},{"type":"Point","id":"Z7hKqnf0U--U9NpsqSCrOJNJPVM=","properties":{"ref":"Schnucks Kehrs Mill","@spider":"schnucks","addr":"2511 Kehrs Mill Rd","city":"Chesterfield","state":"MO","postal":63017,"addr:country":"US","phone":"636-207-3401","website":"https://locations.schnucks.com/mo-chesterfield-174","opening_hours":"Mo-Su 06:00-23:59"},"coordinates":[3584,2437]},{"type":"Point","id":"lNJCspH0Y2-OyGylMftGKOeiHWs=","properties":{"ref":"Schnucks Montvale","@spider":"schnucks","addr":"2801 Chatham Rd","city":"Springfield","state":"IL","postal":62704,"addr:country":"US","phone":"217-698-2980","website":"https://locations.schnucks.com/il-springfield-717","opening_hours":"Mo-Su 00:00-23:59"},"coordinates":[5385,4563]},{"type":"Point","id":"gEd_xp4mCNjmfTlKIE83EodY6lM=","properties":{"ref":"Schnucks Sangamon","@spider":"schnucks","addr":"1911 Sangamon Ave","city":"E. Springfield","state":"IL","postal":62702,"addr:country":"US","phone":"217-744-2012","website":"https://locations.schnucks.com/il-e-springfield-718","opening_hours":"Mo-Su 06:00-23:59"},"coordinates":[5504,4683]},{"type":"Point","id":"e7DqYn2RuIT9yoxLk_RmKr3-_aU=","properties":{"ref":"Schnucks Ballwin","@spider":"schnucks","addr":"15425 Manchester","city":"Ballwin","state":"MO","postal":63011,"addr:country":"US","phone":"636-256-0644","website":"https://locations.schnucks.com/mo-ballwin-106","opening_hours":"Mo-Su 05:00-01:00"},"coordinates":[3622,2387]},{"type":"Point","id":"1Dek28BPLgpgLZr_leG8CWgYDd4=","properties":{"ref":"Schnucks Dorsett","@spider":"schnucks","addr":"2030 Dorsett Rd","city":"Maryland Heights","state":"MO","postal":63043,"addr:country":"US","phone":"314-434-3147","website":"https://locations.schnucks.com/mo-maryland-heights-117","opening_hours":"Mo-Su 00:00-23:59"},"coordinates":[3837,2614]},{"type":"Point","id":"8Dn5SafoYJgxIscrq-Y-XYsK1gY=","properties":{"ref":"Schnucks Eureka Pointe","@spider":"schnucks","addr":"245 E 5th St","city":"Eureka","state":"MO","postal":63025,"addr:country":"US","phone":"636-938-4102","website":"https://locations.schnucks.com/mo-eureka-196","opening_hours":"Mo-Su 05:00-01:00"},"coordinates":[3507,2227]},{"type":"Point","id":"PxPEglxltNDgCjOVS8qrC0KDSs0=","properties":{"ref":"Schnucks Specialty Pharmacy","@spider":"schnucks","addr":"2239 East Cook St","city":"Springfield","state":"IL","postal":62703,"addr:country":"US","phone":"217-753-1956","website":"https://locations.schnucks.com/il-springfield-318","opening_hours":"Mo-Fr 09:00-17:30; "},"coordinates":[5519,4613]},{"type":"Point","id":"Ajxl9mjOQNzfH3Os03PPgoyttoY=","properties":{"ref":"Schnucks Mason","@spider":"schnucks","addr":"12756 Olive Blvd","city":"St. Louis","state":"MO","postal":63141,"addr:country":"US","phone":"314-434-7323","website":"https://locations.schnucks.com/mo-st-louis-116","opening_hours":"Mo-Su 06:00-23:59"},"coordinates":[3804,2543]},{"type":"Point","id":"mIaeUULBnee1IgaCvmfPIL0Laoo=","properties":{"ref":"Schnucks Woods Mill","@spider":"schnucks","addr":"1060 Woods Mill Plaza","city":"Chesterfield","state":"MO","postal":63017,"addr:country":"US","phone":"636-227-2278","website":"https://locations.schnucks.com/mo-chesterfield-142","opening_hours":"Mo-Su 05:00-01:00"},"coordinates":[3722,2442]},{"type":"Point","id":"4LkAkEXwz-brY6o1n0RM7T68FJU=","properties":{"ref":"Schnucks Shackelford","@spider":"schnucks","addr":"1160 Shackelford","city":"Florissant","state":"MO","postal":63031,"addr:country":"US","phone":"314-838-4685","website":"https://locations.schnucks.com/mo-florissant-276","opening_hours":"Mo-Su 06:00-23:59"},"coordinates":[4059,2793]},{"type":"Point","id":"WMtuIy62Ls_xTYx5IN5Mw_43FQM=","properties":{"ref":"Schnucks Bridgeton","@spider":"schnucks","addr":"11253 St Charles Rock Rd","city":"Bridgeton","state":"MO","postal":63044,"addr:country":"US","phone":"314-738-0677","website":"https://locations.schnucks.com/mo-bridgeton-191","opening_hours":"Mo-Su 06:00-23:59"},"coordinates":[3950,2659]},{"type":"Point","id":"HSkICXo8Pa4FlMoMxflxvg3ciQk=","properties":{"ref":"Schnucks Regional Specialty Pharmacy","@spider":"schnucks","addr":"11550 Page Service Dr","city":"St. Louis","state":"MO","postal":63146,"addr:country":"US","phone":"314-344-9201","website":"https://locations.schnucks.com/mo-st-louis-361","opening_hours":"Mo-Fr 09:00-17:30; "},"coordinates":[3905,2584]},{"type":"Point","id":"er-59Bmo8RuyAo_40wmdoxDPHS0=","properties":{"ref":"Schnucks Florissant","@spider":"schnucks","addr":"8200 N Lindbergh","city":"Florissant","state":"MO","postal":63031,"addr:country":"US","phone":"314-921-7060","website":"https://locations.schnucks.com/mo-florissant-101","opening_hours":"Mo-Su 06:00-23:59"},"coordinates":[4063,2751]},{"type":"Point","id":"KebJXxKfCPu9uDQ3qeS6N_M_sVo=","properties":{"ref":"Schnucks Twin Oaks","@spider":"schnucks","addr":"1393 Big Bend","city":"Ballwin","state":"MO","postal":63021,"addr:country":"US","phone":"636-225-3777","website":"https://locations.schnucks.com/mo-ballwin-173","opening_hours":"Mo-Su 00:00-23:59"},"coordinates":[3752,2342]},{"type":"Point","id":"bcsAdKVCbExXMuSUTtd4ka3Uo5Q=","properties":{"ref":"Schnucks Creve Coeur","@spider":"schnucks","addr":"10650 Olive Blvd","city":"St. Louis","state":"MO","postal":63141,"addr:country":"US","phone":"314-567-3838","website":"https://locations.schnucks.com/mo-st-louis-102","opening_hours":"Mo-Sa 06:30-23:00;Su 06:30-22:00"},"coordinates":[3922,2533]},{"type":"Point","id":"Jt0DqFNUC0Ov-dxr8ndAgwH8PNU=","properties":{"ref":"Schnucks Cross Keys","@spider":"schnucks","addr":"13987 New Halls Ferry","city":"Florissant","state":"MO","postal":63033,"addr:country":"US","phone":"314-831-0011","website":"https://locations.schnucks.com/mo-florissant-198","opening_hours":"Mo-Su 00:00-23:59"},"coordinates":[4150,2782]},{"type":"Point","id":"hL-8SaRTWnEF1B1WWdUW8iHKilQ=","properties":{"ref":"Schnucks Godfrey","@spider":"schnucks","addr":"2712 Godfrey","city":"Godfrey","state":"IL","postal":62035,"addr:country":"US","phone":"618-466-7060","website":"https://locations.schnucks.com/il-godfrey-269","opening_hours":"Mo-Su 00:00-23:59"},"coordinates":[4367,2998]},{"type":"Point","id":"55ZHuzUck7WJIGain0xnqP52G7I=","properties":{"ref":"Schnucks Des Peres","@spider":"schnucks","addr":"12332 Manchester Rd","city":"St. Louis","state":"MO","postal":63131,"addr:country":"US","phone":"314-965-3094","website":"https://locations.schnucks.com/mo-st-louis-209","opening_hours":"Mo-Su 00:00-23:59"},"coordinates":[3866,2402]},{"type":"Point","id":"9MnqOmvP9qcWVN5lUUuJkLKtyx8=","properties":{"ref":"Schnucks Grandview","@spider":"schnucks","addr":"74 Grandview Plaza","city":"Florissant","state":"MO","postal":63033,"addr:country":"US","phone":"314-838-4540","website":"https://locations.schnucks.com/mo-florissant-184","opening_hours":"Mo-Su 00:00-23:59"},"coordinates":[4146,2721]},{"type":"Point","id":"-qqD8uA_O302gzZkkJQuqi7NAXA=","properties":{"ref":"Schnucks Normal","@spider":"schnucks","addr":"1750 Bradford Ln","city":"Normal","state":"IL","postal":61761,"addr:country":"US","phone":"309-451-7100","website":"https://locations.schnucks.com/il-normal-729","opening_hours":"Mo-Su 06:00-23:59"},"coordinates":[6793,5982]},{"type":"Point","id":"tXqUwkb9a9QTfAUF6HrQYp3f8P8=","properties":{"ref":"Schnucks Lindbergh","@spider":"schnucks","addr":"10275 Clayton Rd","city":"St. Louis","state":"MO","postal":63124,"addr:country":"US","phone":"314-991-0510","website":"https://locations.schnucks.com/mo-st-louis-180","opening_hours":"Mo-Su 06:30-22:00"},"coordinates":[3941,2462]},{"type":"Point","id":"p6QSCvzzDxcFsyBz1q-bSVc7iVM=","properties":{"ref":"Schnucks Overland","@spider":"schnucks","addr":"9074 Overland Plaza","city":"St. Louis","state":"MO","postal":63114,"addr:country":"US","phone":"314-426-3800","website":"https://locations.schnucks.com/mo-st-louis-141","opening_hours":"Mo-Su 00:00-23:59"},"coordinates":[4034,2557]},{"type":"Point","id":"cjG--23n55YhwcjJ-QJ7gx84gis=","properties":{"ref":"Schnucks Dillon","@spider":"schnucks","addr":"20 Dillon Plaza Dr","city":"High Ridge","state":"MO","postal":63049,"addr:country":"US","phone":"636-677-0061","website":"https://locations.schnucks.com/mo-high-ridge-122","opening_hours":"Mo-Su 06:00-23:59"},"coordinates":[3705,2173]},{"type":"Point","id":"T2MJJ7JmsXHKXHkswPIbFXtwVx0=","properties":{"ref":"Schnucks Ferguson","@spider":"schnucks","addr":"49 N Florissant Rd","city":"Ferguson","state":"MO","postal":63135,"addr:country":"US","phone":"(314) 524-8633","website":"https://www.schnucks.com/web/about/locations/store.asp?store=233","opening_hours":"Mo-Su 06:00-23:00"},"coordinates":[4140,2670]},{"type":"Point","id":"CY03oXT1YKAnoOfoV-cXLucV6cg=","properties":{"ref":"Schnucks Ladue","@spider":"schnucks","addr":"8867 Ladue","city":"St. Louis","state":"MO","postal":63124,"addr:country":"US","phone":"314-725-7574","website":"https://locations.schnucks.com/mo-st-louis-188","opening_hours":"Mo-Sa 06:30-23:00;Su 06:30-22:00"},"coordinates":[4043,2503]},{"type":"Point","id":"FfFTn1q4V8zIjxQAo91mFpsd_uw=","properties":{"ref":"Schnucks Kirkwood","@spider":"schnucks","addr":"10233 Manchester","city":"St. Louis","state":"MO","postal":63122,"addr:country":"US","phone":"314-965-7310","website":"https://locations.schnucks.com/mo-st-louis-139","opening_hours":"Mo-Su 06:00-23:59"},"coordinates":[3959,2403]},{"type":"Point","id":"_mFnDCpvl4Sx_SBNldxCByfmIOM=","properties":{"ref":"Schnucks Alton","@spider":"schnucks","addr":"2811 Homer Adams Pkwy","city":"Alton","state":"IL","postal":62002,"addr:country":"US","phone":"618-465-6673","website":"https://locations.schnucks.com/il-alton-146","opening_hours":"Mo-Su 06:00-01:00"},"coordinates":[4468,2980]},{"type":"Point","id":"SYRpWmGOPCjMB2euRXG5jRHx6s8=","properties":{"ref":"Schnucks Westfall Plaza","@spider":"schnucks","addr":"8037 W Florissant","city":"Jennings","state":"MO","postal":63136,"addr:country":"US","phone":"314-679-2400","website":"https://locations.schnucks.com/mo-jennings-145","opening_hours":"Mo-Su 06:00-23:59"},"coordinates":[4200,2641]},{"type":"Point","id":"WJrD_y3kA4mOMvP8u3MwrFbb-q0=","properties":{"ref":"Schnucks Brentwood Specialty Pharmacy","@spider":"schnucks","addr":"1520 S Brentwood Blvd","city":"St. Louis","state":"MO","postal":63144,"addr:country":"US","phone":"314-918-1281","website":"https://locations.schnucks.com/mo-st-louis-304","opening_hours":"Mo-Fr 08:30-17:00; "},"coordinates":[4059,2450]},{"type":"Point","id":"8ivJuvpeYTrrHTTmZ_IDmAxQDzA=","properties":{"ref":"Schnucks University City","@spider":"schnucks","addr":"6920 Olive Blvd","city":"St. Louis","state":"MO","postal":63130,"addr:country":"US","phone":"314-726-2373","website":"https://locations.schnucks.com/mo-st-louis-125","opening_hours":"Mo-Su 06:00-23:59"},"coordinates":[4124,2516]},{"type":"Point","id":"64c3XZxNqjLxd2byoFcLZcCwJp8=","properties":{"ref":"Schnucks Bloomington","@spider":"schnucks","addr":"1701 E Empire St","city":"Bloomington","state":"IL","postal":61701,"addr:country":"US","phone":"309-662-9300","website":"https://locations.schnucks.com/il-bloomington-706","opening_hours":"Mo-Su 06:00-23:59"},"coordinates":[6873,5892]},{"type":"Point","id":"fL6-KND_CwoTXv8Bb6xYVhRhgNg=","properties":{"ref":"Schnucks Brentwood","@spider":"schnucks","addr":"8800 Manchester","city":"St. Louis","state":"MO","postal":63144,"addr:country":"US","phone":"314-961-5454","website":"https://locations.schnucks.com/mo-st-louis-104","opening_hours":"Mo-Su 06:00-23:59"},"coordinates":[4051,2420]},{"type":"Point","id":"UdPWXdhmzCCN0LYZrX7W-RQfS0c=","properties":{"ref":"Schnucks Sierra Vista","@spider":"schnucks","addr":"1589 Sierra Vista Plaza","city":"St. Louis","state":"MO","postal":63138,"addr:country":"US","phone":"314-741-0282","website":"https://locations.schnucks.com/mo-st-louis-216","opening_hours":"Mo-Su 06:00-23:59"},"coordinates":[4315,2718]},{"type":"Point","id":"utxzojnJ2imW46mBemA_ivoIIyU=","properties":{"ref":"Schnucks Crestwood","@spider":"schnucks","addr":"9540 Watson Rd","city":"St. Louis","state":"MO","postal":63126,"addr:country":"US","phone":"314-849-0341","website":"https://locations.schnucks.com/mo-st-louis-266","opening_hours":"Mo-Su 06:00-23:59"},"coordinates":[3994,2320]},{"type":"Point","id":"VACL6LcCscTCLdy06m1691OMp9c=","properties":{"ref":"Schnucks Webster","@spider":"schnucks","addr":"8650 Big Bend","city":"St. Louis","state":"MO","postal":63119,"addr:country":"US","phone":"314-961-0555","website":"https://locations.schnucks.com/mo-st-louis-136","opening_hours":"Mo-Su 00:00-23:59"},"coordinates":[4038,2367]},{"type":"Point","id":"QqZENk_bBfx0TLG7xFaW5k0WM1c=","properties":{"ref":"Schnucks Richmond Ctr.","@spider":"schnucks","addr":"6600 Clayton Rd","city":"St. Louis","state":"MO","postal":63117,"addr:country":"US","phone":"314-644-0510","website":"https://locations.schnucks.com/mo-st-louis-272","opening_hours":"Mo-Su 00:00-23:59"},"coordinates":[4122,2461]},{"type":"Point","id":"o1iF5DMOqMWEAMuwWvdYD5VcFSc=","properties":{"ref":"Schnucks Maplewood","@spider":"schnucks","addr":"7355 Manchester Road","city":"Maplewood","state":"MO","postal":63143,"addr:country":"US","phone":"314-644-7825","opening_hours":"Mo-Su 06:00-23:59"},"coordinates":[4114,2425]},{"type":"Point","id":"9wOT0EBBU7lvI4JtxgfnHKFt4Pc=","properties":{"ref":"Schnucks City Plaza","@spider":"schnucks","addr":"3431 Union","city":"St. Louis","state":"MO","postal":63115,"addr:country":"US","phone":"314-381-8789","website":"https://locations.schnucks.com/mo-st-louis-113","opening_hours":"Mo-Su 06:00-23:59"},"coordinates":[4231,2546]},{"type":"Point","id":"nwwjPUHhqohzt-x-UDXdPc55zyQ=","properties":{"ref":"Schnucks Concord Village","@spider":"schnucks","addr":"5434 Southfield Center","city":"St. Louis","state":"MO","postal":63123,"addr:country":"US","phone":"314-849-1815","website":"https://locations.schnucks.com/mo-st-louis-193","opening_hours":"Mo-Su 06:00-23:59"},"coordinates":[4033,2262]},{"type":"Point","id":"7yRMxGhX5ljF0lyr7ZYFCk6w1Hg=","properties":{"ref":"Schnucks Watson Specialty Pharmacy","@spider":"schnucks","addr":"3915 Watson Rd. Ste 101B","city":"St. Louis","state":"MO","postal":63109,"addr:country":"US","phone":"314-396-3773","website":"https://www.schnucks.com/web/pharmacy/","opening_hours":"Mo-Fr 08:30-17:00; "},"coordinates":[4149,2389]},{"type":"Point","id":"-9FHURChFEcDltpP8G6XHkF6x6c=","properties":{"ref":"Schnucks Bethalto","@spider":"schnucks","addr":"72 Airport Plaza","city":"Bethalto","state":"IL","postal":62010,"addr:country":"US","phone":"618-377-0235","website":"https://locations.schnucks.com/il-bethalto-178","opening_hours":"Mo-Su 06:00-23:00"},"coordinates":[4640,2961]},{"type":"Point","id":"LoNYAAIjAN3FSdtEoJKyIG1RlJk=","properties":{"ref":"Schnucks Affton","@spider":"schnucks","addr":"10070 Gravois","city":"St. Louis","state":"MO","postal":63123,"addr:country":"US","phone":"314-631-8220","website":"https://locations.schnucks.com/mo-st-louis-137","opening_hours":"Mo-Su 00:00-23:59"},"coordinates":[4080,2305]},{"type":"Point","id":"Ts3b9pmx8DsR21y4Lt4nlqKQIxw=","properties":{"ref":"Schnucks Hampton Vlg.","@spider":"schnucks","addr":"60 Hampton Village Plaza","city":"St. Louis","state":"MO","postal":63109,"addr:country":"US","phone":"314-353-5060","website":"https://locations.schnucks.com/mo-st-louis-258","opening_hours":"Mo-Su 00:00-23:59"},"coordinates":[4166,2383]},{"type":"Point","id":"LK0A0e-fwSP0SUwvX4fYlgp6RzE=","properties":{"ref":"Schnucks Lindell","@spider":"schnucks","addr":"4171 Lindell Blvd","city":"St. Louis","state":"MO","postal":63108,"addr:country":"US","phone":"314-533-8027","website":"https://locations.schnucks.com/mo-st-louis-227","opening_hours":"Mo-Su 00:00-23:59"},"coordinates":[4258,2476]},{"type":"Point","id":"f0XPE3gwnu1DMfJuBnM_nP807DI=","properties":{"ref":"Schnucks Arsenal","@spider":"schnucks","addr":"5055 Arsenal","city":"St. Louis","state":"MO","postal":63139,"addr:country":"US","phone":"314-771-5008","website":"https://locations.schnucks.com/mo-st-louis-149","opening_hours":"Mo-Su 06:00-23:59"},"coordinates":[4205,2411]},{"type":"Point","id":"yYdY-zdX_IZgy1GLpaRoxiIW-Bc=","properties":{"ref":"Schnucks Lindell Specialty Pharmacy","@spider":"schnucks","addr":"3960 Lindell Blvd","city":"St. Louis","state":"MO","postal":63108,"addr:country":"US","phone":"314-533-2992","website":"https://locations.schnucks.com/mo-st-louis-327","opening_hours":"Mo-Fr 09:00-17:30; "},"coordinates":[4267,2471]},{"type":"Point","id":"3JLynDXDFfA5hTm1rMi7Yi1AYRg=","properties":{"ref":"Schnucks Butler Hill","@spider":"schnucks","addr":"4333 Butler Hill","city":"St. Louis","state":"MO","postal":63128,"addr:country":"US","phone":"314-894-1227","website":"https://locations.schnucks.com/mo-st-louis-105","opening_hours":"Mo-Su 00:00-23:59"},"coordinates":[4035,2190]},{"type":"Point","id":"uxy_BlmQdB-ixr1GnQCrp5eZNNw=","properties":{"ref":"Schnucks Gravois","@spider":"schnucks","addr":"7450 Hampton Ave","city":"St. Louis","state":"MO","postal":63109,"addr:country":"US","phone":"314-832-3440","website":"https://locations.schnucks.com/mo-st-louis-107","opening_hours":"Mo-Su 06:00-23:59"},"coordinates":[4166,2335]},{"type":"Point","id":"45gs0dSZraO4ciiFS7KLZhwsXes=","properties":{"ref":"Schnucks Richardson","@spider":"schnucks","addr":"3900 Vogel Rd","city":"Arnold","state":"MO","postal":63010,"addr:country":"US","phone":"636-282-3377","website":"https://locations.schnucks.com/mo-arnold-127","opening_hours":"Mo-Su 00:00-23:59"},"coordinates":[3962,2058]},{"type":"Point","id":"JWzu3-W-p0Qkc8Z-v-ceXt0Ar50=","properties":{"ref":"Schnucks South City","@spider":"schnucks","addr":"3430 S Grand","city":"St. Louis","state":"MO","postal":63118,"addr:country":"US","phone":"314-772-5500","website":"https://locations.schnucks.com/mo-st-louis-143","opening_hours":"Mo-Su 06:00-23:59"},"coordinates":[4268,2390]},{"type":"Point","id":"5MeMc8myRRTQiKw24H_TCVfIPsk=","properties":{"ref":"Schnucks Loughborough","@spider":"schnucks","addr":"1020 Loughborough","city":"St. Louis","state":"MO","postal":63111,"addr:country":"US","phone":"314-752-5333","website":"https://locations.schnucks.com/mo-st-louis-192","opening_hours":"Mo-Su 06:00-23:59"},"coordinates":[4227,2318]},{"type":"Point","id":"jUbgWy6qk1ZWFnlhmx3_FEgL4cY=","properties":{"ref":"Schnucks Culinaria","@spider":"schnucks","addr":"315 N 9th St","city":"St. Louis","state":"MO","postal":63101,"addr:country":"US","phone":"314-436-7694","website":"https://locations.schnucks.com/mo-st-louis-301","opening_hours":"Mo-Su 06:00-21:00"},"coordinates":[4367,2453]},{"type":"Point","id":"QgIV7M1AADZz1QwEnVIiVlXXRls=","properties":{"ref":"Schnucks Granite City","@spider":"schnucks","addr":"3100 Madison Ave","city":"Granite City","state":"IL","postal":62040,"addr:country":"US","phone":"618-451-0517","website":"https://locations.schnucks.com/il-granite-city-288","opening_hours":"Mo-Su 00:00-23:59"},"coordinates":[4508,2616]},{"type":"Point","id":"46BSUOddWjxf4ypirRUjJxi1blw=","properties":{"ref":"Schnucks Telegraph","@spider":"schnucks","addr":"5519 Oakville Shopping Center","city":"St. Louis","state":"MO","postal":63129,"addr:country":"US","phone":"314-892-6401","website":"https://locations.schnucks.com/mo-st-louis-118","opening_hours":"Mo-Su 00:00-23:59"},"coordinates":[4139,2163]},{"type":"Point","id":"_-qH2w7FbJnDCJhTKWonE6OSv8I=","properties":{"ref":"Schnucks Cahokia","@spider":"schnucks","addr":"1615 Camp Jackson","city":"Cahokia","state":"IL","postal":62206,"addr:country":"US","phone":"618-332-0060","website":"https://locations.schnucks.com/il-cahokia-148","opening_hours":"Mo-Su 06:00-22:00"},"coordinates":[4425,2315]},{"type":"Point","id":"V3TL5rw8piNL5HIQIY4om-boERE=","properties":{"ref":"Schnucks Market Place","@spider":"schnucks","addr":"1000 Columbia Centre","city":"Columbia","state":"IL","postal":62236,"addr:country":"US","phone":"618-281-6300","website":"https://locations.schnucks.com/il-columbia-244","opening_hours":"Mo-Su 06:00-22:00"},"coordinates":[4313,2110]},{"type":"Point","id":"6Y4AJijTWZDOtcQvXxN24BSVhqA=","properties":{"ref":"Schnucks Edwardsville","@spider":"schnucks","addr":"2222 Troy Rd","city":"Edwardsville","state":"IL","postal":62025,"addr:country":"US","phone":"618-659-0010","website":"https://locations.schnucks.com/il-edwardsville-229","opening_hours":"Mo-Su 06:00-23:59"},"coordinates":[4861,2743]},{"type":"Point","id":"tEAMVeXDCzz4A3AZdAtZUAx0ogM=","properties":{"ref":"Schnucks Festus","@spider":"schnucks","addr":"1181 Gannon Plaza","city":"Festus","state":"MO","postal":63028,"addr:country":"US","phone":"636-937-3339","website":"https://locations.schnucks.com/mo-festus-731","opening_hours":"Mo-Su 06:00-23:00"},"coordinates":[3946,1676]},{"type":"Point","id":"pPKX-UicOc3kUkYEMZ777rGGhSY=","properties":{"ref":"Schnucks Collinsville","@spider":"schnucks","addr":"501 Beltline Rd","city":"Collinsville","state":"IL","postal":62234,"addr:country":"US","phone":"618-345-7661","website":"https://locations.schnucks.com/il-collinsville-119","opening_hours":"Mo-Su 06:00-23:59"},"coordinates":[4801,2569]},{"type":"Point","id":"3f5i32QkMe1oii6w5WVeJTyJAOo=","properties":{"ref":"Schnucks Belleville W.","@spider":"schnucks","addr":"5720 N Belt W","city":"Belleville","state":"IL","postal":62226,"addr:country":"US","phone":"618-235-6819","website":"https://locations.schnucks.com/il-belleville-115","opening_hours":"Mo-Su 06:00-23:59"},"coordinates":[4689,2289]},{"type":"Point","id":"GSe4kwZGTdC8A7wgjY1xQA9X2is=","properties":{"ref":"Schnucks Fairview","@spider":"schnucks","addr":"625 Lincoln Hwy","city":"Fairview Heights","state":"IL","postal":62208,"addr:country":"US","phone":"618-624-4310","website":"https://locations.schnucks.com/il-fairview-heights-144","opening_hours":"Mo-Su 06:00-01:00"},"coordinates":[4805,2388]},{"type":"Point","id":"wEeP41MOO22hFREbPSX3bEmzcZQ=","properties":{"ref":"Schnucks Waterloo","@spider":"schnucks","addr":"150 Waterloo Commons Dr","city":"Waterloo","state":"IL","postal":62298,"addr:country":"US","phone":"618-939-6155","website":"https://locations.schnucks.com/il-waterloo-243","opening_hours":"Mo-Su 06:00-23:59"},"coordinates":[4449,1941]},{"type":"Point","id":"_Kdpgpx7O4qni7yhnAc5Adb5YUc=","properties":{"ref":"Schnucks Swansea","@spider":"schnucks","addr":"2665 N Illinois St","city":"Swansea","state":"IL","postal":62226,"addr:country":"US","phone":"618-236-1414","website":"https://locations.schnucks.com/il-swansea-120","opening_hours":"Mo-Su 06:00-01:00"},"coordinates":[4787,2293]},{"type":"Point","id":"D3Q28VkbOhZs5eGboo_XdZakVCM=","properties":{"ref":"Schnucks Belleville E.","@spider":"schnucks","addr":"110 Carlyle Plaza Dr","city":"Belleville","state":"IL","postal":62221,"addr:country":"US","phone":"618-234-0220","website":"https://locations.schnucks.com/il-belleville-267","opening_hours":"Mo-Su 06:00-22:00"},"coordinates":[4852,2239]},{"type":"Point","id":"K7U9EA2hPbxNMF6b_sz72j52tHk=","properties":{"ref":"Schnucks Seven Hills","@spider":"schnucks","addr":"907 E Highway 50","city":"O'Fallon","state":"IL","postal":62269,"addr:country":"US","phone":"618-632-5525","website":"https://locations.schnucks.com/il-ofallon-177","opening_hours":"Mo-Su 06:00-23:59"},"coordinates":[4967,2368]},{"type":"Point","id":"NPGwxS83PnWPXwjb8BqvuqjL0FY=","properties":{"ref":"Schnucks Farmington","@spider":"schnucks","addr":"942 Valley Creek","city":"Farmington","state":"MO","postal":63640,"addr:country":"US","phone":"573-664-5200","website":"https://locations.schnucks.com/mo-farmington-743","opening_hours":"Mo-Th 06:00-22:00;Fr-Sa 06:00-23:00;Su 06:00-22:00"},"coordinates":[3867,905]},{"type":"Point","id":"JlCZNxU2E5bJLH2JJvkYAU-KJco=","properties":{"ref":"Schnucks Champaign","@spider":"schnucks","addr":"109 N Mattis Ave","city":"Champaign","state":"IL","postal":61821,"addr:country":"US","phone":"217-351-2600","website":"https://locations.schnucks.com/il-champaign-707","opening_hours":"Mo-Su 06:00-23:59"},"coordinates":[8231,5210]},{"type":"Point","id":"VV_Yz6CV5HuBDxdCYiFqvdWBigs=","properties":{"ref":"Schnucks Savoy","@spider":"schnucks","addr":"1301 Savoy Plaza Center","city":"Savoy","state":"IL","postal":61874,"addr:country":"US","phone":"217-373-0700","website":"https://locations.schnucks.com/il-savoy-730","opening_hours":"Mo-Su 06:00-23:59"},"coordinates":[8284,5123]},{"type":"Point","id":"qnxUotfaWJyGRg7w0CYi1wFhYhQ=","properties":{"ref":"Schnucks Urbana","@spider":"schnucks","addr":"200 N Vine","city":"Urbana","state":"IL","postal":61802,"addr:country":"US","phone":"217-337-6016","website":"https://locations.schnucks.com/il-urbana-720","opening_hours":"Mo-Su 00:00-23:59"},"coordinates":[8382,5204]},{"type":"Point","id":"CAbQqr03AMC8zEa70denlJjm9Ko=","properties":{"ref":"Schnucks Centralia","@spider":"schnucks","addr":"1129 W Broadway","city":"Centralia","state":"IL","postal":62801,"addr:country":"US","phone":"618-532-4449","website":"https://locations.schnucks.com/il-centralia-733","opening_hours":"Mo-Su 06:00-22:00"},"coordinates":[6466,2266]},{"type":"Point","id":"p2wXLLqZ715pe0GzgE1iDjqrvIE=","properties":{"ref":"Schnucks Carbondale","@spider":"schnucks","addr":"915 W Main","city":"Carbondale","state":"IL","postal":62901,"addr:country":"US","phone":"618-351-0463","website":"https://locations.schnucks.com/il-carbondale-722","opening_hours":"Mo-Su 00:00-23:59"},"coordinates":[6314,778]},{"type":"Point","id":"waDQ0n8UPrCafShpbCeUb05_qBM=","properties":{"ref":"Schnucks Cape Girardeau","@spider":"schnucks","addr":"19 S Kingshighway","city":"Cape Girardeau","state":"MO","postal":63703,"addr:country":"US","phone":"573-334-9191","website":"https://locations.schnucks.com/mo-cape-girardeau-702","opening_hours":"Mo-Su 00:00-23:59"},"coordinates":[5658,0]},{"type":"Point","id":"dgY00E6mVQkdSg1fPPo2ZfOpJ-E=","properties":{"ref":"Schnucks Darmstadt","@spider":"schnucks","addr":"600 E Boonville New Harmony Rd","city":"Evansville","state":"IN","postal":47725,"addr:country":"US","phone":"812-464-3500","website":"https://locations.schnucks.com/in-evansville-742","opening_hours":"Mo-Su 05:00-23:59"},"coordinates":[9694,1465]},{"type":"Point","id":"a7SYyA-OiuPMSWX7mSwF762Gv_o=","properties":{"ref":"Schnucks Evansville W.","@spider":"schnucks","addr":"4500 W Lloyd Expressway","city":"Evansville","state":"IN","postal":47712,"addr:country":"US","phone":"812-422-6325","website":"https://locations.schnucks.com/in-evansville-705","opening_hours":"Mo-Su 06:00-23:59"},"coordinates":[9538,1243]},{"type":"Point","id":"4z68wIeFc9k3B8LikFRG1X6Uy3c=","properties":{"ref":"Schnucks Evansville N.","@spider":"schnucks","addr":"3700 First Ave","city":"Evansville","state":"IN","postal":47710,"addr:country":"US","phone":"812-464-3920","website":"https://locations.schnucks.com/in-evansville-704","opening_hours":"Mo-Su 06:00-23:59"},"coordinates":[9648,1309]},{"type":"Point","id":"FgVsRutiiReUC0ruL0hCljfS8p0=","properties":{"ref":"Schnucks Green River","@spider":"schnucks","addr":"3501 N Green River Rd","city":"Evansville","state":"IN","postal":47715,"addr:country":"US","phone":"812-473-4510","website":"https://locations.schnucks.com/in-evansville-728","opening_hours":"Mo-Su 06:00-23:59"},"coordinates":[9821,1305]},{"type":"Point","id":"De1_pTwDp8wBBhgARJR_xvmJ2aw=","properties":{"ref":"Schnucks Lawndale","@spider":"schnucks","addr":"5000 Washington Ave","city":"Evansville","state":"IN","postal":47715,"addr:country":"US","phone":"812-473-0151","website":"https://locations.schnucks.com/in-evansville-708","opening_hours":"Mo-Su 06:00-23:59"},"coordinates":[9819,1219]},{"type":"Point","id":"1RsQ6i-s7i5KaFN8jApoYUvJUhI=","properties":{"ref":"Schnucks Newburgh","@spider":"schnucks","addr":"8301 Bell Oaks Dr","city":"Newburgh","state":"IN","postal":47630,"addr:country":"US","phone":"812-853-9505","website":"https://locations.schnucks.com/in-newburgh-744","opening_hours":"Mo-Su 06:00-23:59"},"coordinates":[9999,1241]}]}},"arcs":[],"transform":{"scale":[0.0004957212419659006,0.000539762661797371],"translate":[-92.35852109840766,37.30517404468809]},"bbox":[-92.35852109840766,37.30517404468809,-87.40180439999062,42.7022609]}